{
  "type": "FeatureCollection",
  "features": [
    {
      "type": "Feature",
      "properties": {
        "norad_id": 35650,
        "name": "COSMOS 2251 DEB",
        "group": "cosmos-2251-debris",
        "lat": -11.147967929603999,
        "lon": -178.10429843054195,
        "alt_km": 630.2331603065877,
        "timestamp": "2025-12-22T22:44:21.375605+00:00",
        "meta_object_name": "COSMOS 2251 DEB",
        "meta_object_id": "1993-036ANR",
        "meta_epoch": "2025-12-21T00:43:00.521760",
        "meta_mean_motion": 14.83815616,
        "meta_eccentricity": 0.00149589,
        "meta_inclination": 74.045,
        "meta_ra_of_asc_node": 2.46,
        "meta_arg_of_pericenter": 46.0258,
        "meta_mean_anomaly": 346.2318,
        "meta_ephemeris_type": 0,
        "meta_classification_type": "U",
        "meta_norad_cat_id": 35650,
        "meta_element_set_no": 999,
        "meta_rev_at_epoch": 87757,
        "meta_bstar": 0.0010844283,
        "meta_mean_motion_dot": 8.984e-05,
        "meta_mean_motion_ddot": 0,
        "tle_line1": "1 35650U 93036ANR 25355.02986715  .00008984  00000+0  10844-2 0  9995",
        "tle_line2": "2 35650  74.0450   2.4600 0014958  46.0258 346.2318 14.83815616877579"
      },
      "geometry": {
        "type": "Point",
        "coordinates": [
          -178.10429843054195,
          -11.147967929603999
        ]
      }
    },
    {
      "type": "Feature",
      "properties": {
        "norad_id": 35660,
        "name": "COSMOS 2251 DEB",
        "group": "cosmos-2251-debris",
        "lat": -31.11177424736886,
        "lon": 104.1296118820687,
        "alt_km": 725.5942323335903,
        "timestamp": "2025-12-22T22:44:21.375615+00:00",
        "meta_object_name": "COSMOS 2251 DEB",
        "meta_object_id": "1993-036APB",
        "meta_epoch": "2025-12-22T02:10:51.745152",
        "meta_mean_motion": 14.49959651,
        "meta_eccentricity": 0.002078,
        "meta_inclination": 74.0442,
        "meta_ra_of_asc_node": 115.6794,
        "meta_arg_of_pericenter": 262.6258,
        "meta_mean_anomaly": 275.2762,
        "meta_ephemeris_type": 0,
        "meta_classification_type": "U",
        "meta_norad_cat_id": 35660,
        "meta_element_set_no": 999,
        "meta_rev_at_epoch": 66006,
        "meta_bstar": 0.00046816232,
        "meta_mean_motion_dot": 1.789e-05,
        "meta_mean_motion_ddot": 0,
        "tle_line1": "1 35660U 93036APB 25356.09087668  .00001789  00000+0  46816-3 0  9998",
        "tle_line2": "2 35660  74.0442 115.6794 0020780 262.6258 275.2762 14.49959651660066"
      },
      "geometry": {
        "type": "Point",
        "coordinates": [
          104.1296118820687,
          -31.11177424736886
        ]
      }
    },
    {
      "type": "Feature",
      "properties": {
        "norad_id": 35661,
        "name": "COSMOS 2251 DEB",
        "group": "cosmos-2251-debris",
        "lat": -49.93386455229145,
        "lon": -100.68856352017974,
        "alt_km": 595.2185497048185,
        "timestamp": "2025-12-22T22:44:21.375626+00:00",
        "meta_object_name": "COSMOS 2251 DEB",
        "meta_object_id": "1993-036APC",
        "meta_epoch": "2025-12-22T10:23:48.090336",
        "meta_mean_motion": 14.86704146,
        "meta_eccentricity": 0.00869572,
        "meta_inclination": 74.0131,
        "meta_ra_of_asc_node": 60.4066,
        "meta_arg_of_pericenter": 162.1436,
        "meta_mean_anomaly": 198.2834,
        "meta_ephemeris_type": 0,
        "meta_classification_type": "U",
        "meta_norad_cat_id": 35661,
        "meta_element_set_no": 999,
        "meta_rev_at_epoch": 88012,
        "meta_bstar": 0.00078467061,
        "meta_mean_motion_dot": 7.446e-05,
        "meta_mean_motion_ddot": 0,
        "tle_line1": "1 35661U 93036APC 25356.43319549  .00007446  00000+0  78467-3 0  9996",
        "tle_line2": "2 35661  74.0131  60.4066 0086957 162.1436 198.2834 14.86704146880124"
      },
      "geometry": {
        "type": "Point",
        "coordinates": [
          -100.68856352017974,
          -49.93386455229145
        ]
      }
    },
    {
      "type": "Feature",
      "properties": {
        "norad_id": 35663,
        "name": "COSMOS 2251 DEB",
        "group": "cosmos-2251-debris",
        "lat": 64.74479503792146,
        "lon": 142.39685567512007,
        "alt_km": 669.2782548846953,
        "timestamp": "2025-12-22T22:44:21.375636+00:00",
        "meta_object_name": "COSMOS 2251 DEB",
        "meta_object_id": "1993-036APE",
        "meta_epoch": "2025-12-19T23:59:07.553472",
        "meta_mean_motion": 14.65779868,
        "meta_eccentricity": 0.00057705,
        "meta_inclination": 74.0195,
        "meta_ra_of_asc_node": 110.6712,
        "meta_arg_of_pericenter": 187.908,
        "meta_mean_anomaly": 172.1999,
        "meta_ephemeris_type": 0,
        "meta_classification_type": "U",
        "meta_norad_cat_id": 35663,
        "meta_element_set_no": 999,
        "meta_rev_at_epoch": 73488,
        "meta_bstar": 0.0009843987,
        "meta_mean_motion_dot": 5.342e-05,
        "meta_mean_motion_ddot": 0,
        "tle_line1": "1 35663U 93036APE 25353.99939298  .00005342  00000+0  98440-3 0  9991",
        "tle_line2": "2 35663  74.0195 110.6712 0005770 187.9080 172.1999 14.65779868734880"
      },
      "geometry": {
        "type": "Point",
        "coordinates": [
          142.39685567512007,
          64.74479503792146
        ]
      }
    },
    {
      "type": "Feature",
      "properties": {
        "norad_id": 35667,
        "name": "COSMOS 2251 DEB",
        "group": "cosmos-2251-debris",
        "lat": -74.04116814401984,
        "lon": 31.938380875904823,
        "alt_km": 699.9061693965377,
        "timestamp": "2025-12-22T22:44:21.375646+00:00",
        "meta_object_name": "COSMOS 2251 DEB",
        "meta_object_id": "1993-036APJ",
        "meta_epoch": "2025-12-21T01:06:26.178912",
        "meta_mean_motion": 14.60101094,
        "meta_eccentricity": 0.00192171,
        "meta_inclination": 74.055,
        "meta_ra_of_asc_node": 124.2734,
        "meta_arg_of_pericenter": 183.7599,
        "meta_mean_anomaly": 176.3426,
        "meta_ephemeris_type": 0,
        "meta_classification_type": "U",
        "meta_norad_cat_id": 35667,
        "meta_element_set_no": 999,
        "meta_rev_at_epoch": 70924,
        "meta_bstar": 0.00075939759,
        "meta_mean_motion_dot": 3.634e-05,
        "meta_mean_motion_ddot": 0,
        "tle_line1": "1 35667U 93036APJ 25355.04613633  .00003634  00000+0  75940-3 0  9997",
        "tle_line2": "2 35667  74.0550 124.2734 0019217 183.7599 176.3426 14.60101094709242"
      },
      "geometry": {
        "type": "Point",
        "coordinates": [
          31.938380875904823,
          -74.04116814401984
        ]
      }
    },
    {
      "type": "Feature",
      "properties": {
        "norad_id": 35668,
        "name": "COSMOS 2251 DEB",
        "group": "cosmos-2251-debris",
        "lat": 11.692182947927439,
        "lon": 17.533405548317006,
        "alt_km": 723.4065197466862,
        "timestamp": "2025-12-22T22:44:21.375656+00:00",
        "meta_object_name": "COSMOS 2251 DEB",
        "meta_object_id": "1993-036APK",
        "meta_epoch": "2025-12-22T07:12:32.696352",
        "meta_mean_motion": 14.64011505,
        "meta_eccentricity": 0.00834358,
        "meta_inclination": 74.0437,
        "meta_ra_of_asc_node": 202.1696,
        "meta_arg_of_pericenter": 305.1672,
        "meta_mean_anomaly": 54.1699,
        "meta_ephemeris_type": 0,
        "meta_classification_type": "U",
        "meta_norad_cat_id": 35668,
        "meta_element_set_no": 999,
        "meta_rev_at_epoch": 87787,
        "meta_bstar": 0.00022530086,
        "meta_mean_motion_dot": 1.208e-05,
        "meta_mean_motion_ddot": 0,
        "tle_line1": "1 35668U 93036APK 25356.30037843  .00001208  00000+0  22530-3 0  9993",
        "tle_line2": "2 35668  74.0437 202.1696 0083435 305.1672  54.1699 14.64011505877876"
      },
      "geometry": {
        "type": "Point",
        "coordinates": [
          17.533405548317006,
          11.692182947927439
        ]
      }
    },
    {
      "type": "Feature",
      "properties": {
        "norad_id": 35669,
        "name": "COSMOS 2251 DEB",
        "group": "cosmos-2251-debris",
        "lat": -0.5085899695232705,
        "lon": -37.111923903019495,
        "alt_km": 951.3455774403892,
        "timestamp": "2025-12-22T22:44:21.375666+00:00",
        "meta_object_name": "COSMOS 2251 DEB",
        "meta_object_id": "1993-036APL",
        "meta_epoch": "2025-12-20T02:35:15.805248",
        "meta_mean_motion": 13.57168765,
        "meta_eccentricity": 0.03877863,
        "meta_inclination": 73.8603,
        "meta_ra_of_asc_node": 147.3718,
        "meta_arg_of_pericenter": 257.91,
        "meta_mean_anomaly": 97.8317,
        "meta_ephemeris_type": 0,
        "meta_classification_type": "U",
        "meta_norad_cat_id": 35669,
        "meta_element_set_no": 999,
        "meta_rev_at_epoch": 60889,
        "meta_bstar": 0.00066721827,
        "meta_mean_motion_dot": 7.5e-06,
        "meta_mean_motion_ddot": 0,
        "tle_line1": "1 35669U 93036APL 25354.10782182  .00000750  00000+0  66722-3 0  9995",
        "tle_line2": "2 35669  73.8603 147.3718 0387786 257.9100  97.8317 13.57168765608897"
      },
      "geometry": {
        "type": "Point",
        "coordinates": [
          -37.111923903019495,
          -0.5085899695232705
        ]
      }
    }
  ]
}